{"type": "FeatureCollection", "features": [ {"type": "Feature", "properties": {"norad_id": 66629, "name": "STARLINK-35956", "group": "last-30-days", "lat": 47.12594207258795, "lon": -108.07446922820631, "alt_km": 381.3443938515038, "timestamp": "2025-12-10T11:33:52.173084+00:00", "meta": {"OBJECT_NAME": "STARLINK-35956", "OBJECT_ID": "2025-271N", "EPOCH": "2025-12-10T04:00:01.998720", "MEAN_MOTION": 15.61171625, "ECCENTRICITY": 0.0001104, "INCLINATION": 53.1597, "RA_OF_ASC_NODE": 199.6018, "ARG_OF_PERICENTER": 82.0843, "MEAN_ANOMALY": 12.7947, "EPHEMERIS_TYPE": 0, "CLASSIFICATION_TYPE": "U", "NORAD_CAT_ID": 66629, "ELEMENT_SET_NO": 999, "REV_AT_EPOCH": 383, "BSTAR": -0.026598, "MEAN_MOTION_DOT": -0.02010379, "MEAN_MOTION_DDOT": 0}, "tle": {"line1": "1 66629U 25271N   25344.16668980 -.02010379  00000+0 -26598-1 0  9992", "line2": "2 66629  53.1597 199.6018 0001104  82.0843  12.7947 15.61171625  3835"}}, "geometry": {"type": "Point", "coordinates": [-108.07446922820631, 47.12594207258795]}}, {"type": "Feature", "properties": {"norad_id": 66630, "name": "STARLINK-35949", "group": "last-30-days", "lat": 48.00486591548199, "lon": -105.54739976082475, "alt_km": 381.1935657890135, "timestamp": "2025-12-10T11:33:52.173094+00:00", "meta": {"OBJECT_NAME": "STARLINK-35949", "OBJECT_ID": "2025-271P", "EPOCH": "2025-12-10T04:00:01.998720", "MEAN_MOTION": 15.61171435, "ECCENTRICITY": 0.0001092, "INCLINATION": 53.1594, "RA_OF_ASC_NODE": 199.5964, "ARG_OF_PERICENTER": 71.7817, "MEAN_ANOMALY": 25.0131, "EPHEMERIS_TYPE": 0, "CLASSIFICATION_TYPE": "U", "NORAD_CAT_ID": 66630, "ELEMENT_SET_NO": 999, "REV_AT_EPOCH": 383, "BSTAR": -0.026579, "MEAN_MOTION_DOT": -0.02009123, "MEAN_MOTION_DDOT": 0}, "tle": {"line1": "1 66630U 25271P   25344.16668980 -.02009123  00000+0 -26579-1 0  9998", "line2": "2 66630  53.1594 199.5964 0001092  71.7817  25.0131 15.61171435  3836"}}, "geometry": {"type": "Point", "coordinates": [-105.54739976082475, 48.00486591548199]}}, {"type": "Feature", "properties": {"norad_id": 66631, "name": "STARLINK-35965", "group": "last-30-days", "lat": 48.825763724222256, "lon": -102.93632828624105, "alt_km": 381.20411851273184, "timestamp": "2025-12-10T11:33:52.173104+00:00", "meta": {"OBJECT_NAME": "STARLINK-35965", "OBJECT_ID": "2025-271Q", "EPOCH": "2025-12-10T04:00:01.998720", "MEAN_MOTION": 15.61174795, "ECCENTRICITY": 9.43e-05, "INCLINATION": 53.1595, "RA_OF_ASC_NODE": 199.5931, "ARG_OF_PERICENTER": 88.8748, "MEAN_ANOMALY": 9.8366, "EPHEMERIS_TYPE": 0, "CLASSIFICATION_TYPE": "U", "NORAD_CAT_ID": 66631, "ELEMENT_SET_NO": 999, "REV_AT_EPOCH": 383, "BSTAR": -0.026641, "MEAN_MOTION_DOT": -0.02013331, "MEAN_MOTION_DDOT": 0}, "tle": {"line1": "1 66631U 25271Q   25344.16668980 -.02013331  00000+0 -26641-1 0  9995", "line2": "2 66631  53.1595 199.5931 0000943  88.8748   9.8366 15.61174795  3830"}}, "geometry": {"type": "Point", "coordinates": [-102.93632828624105, 48.825763724222256]}}, {"type": "Feature", "properties": {"norad_id": 66632, "name": "STARLINK-35973", "group": "last-30-days", "lat": 49.585730555204094, "lon": -100.24103522594254, "alt_km": 380.9955439279556, "timestamp": "2025-12-10T11:33:52.173114+00:00", "meta": {"OBJECT_NAME": "STARLINK-35973", "OBJECT_ID": "2025-271R", "EPOCH": "2025-12-10T04:00:01.998720", "MEAN_MOTION": 15.61171012, "ECCENTRICITY": 0.0001055, "INCLINATION": 53.1594, "RA_OF_ASC_NODE": 199.5891, "ARG_OF_PERICENTER": 78.4574, "MEAN_ANOMALY": 22.1717, "EPHEMERIS_TYPE": 0, "CLASSIFICATION_TYPE": "U", "NORAD_CAT_ID": 66632, "ELEMENT_SET_NO": 999, "REV_AT_EPOCH": 377, "BSTAR": -0.026572, "MEAN_MOTION_DOT": -0.02008552, "MEAN_MOTION_DDOT": 0}, "tle": {"line1": "1 66632U 25271R   25344.16668980 -.02008552  00000+0 -26572-1 0  9998", "line2": "2 66632  53.1594 199.5891 0001055  78.4574  22.1717 15.61171012  3772"}}, "geometry": {"type": "Point", "coordinates": [-100.24103522594254, 49.585730555204094]}}, {"type": "Feature", "properties": {"norad_id": 66633, "name": "STARLINK-35948", "group": "last-30-days", "lat": 50.28126053781928, "lon": -97.46553416425242, "alt_km": 380.8631859436309, "timestamp": "2025-12-10T11:33:52.173125+00:00", "meta": {"OBJECT_NAME": "STARLINK-35948", "OBJECT_ID": "2025-271S", "EPOCH": "2025-12-10T04:00:01.998720", "MEAN_MOTION": 15.61171526, "ECCENTRICITY": 0.0001094, "INCLINATION": 53.1597, "RA_OF_ASC_NODE": 199.5842, "ARG_OF_PERICENTER": 75.2359, "MEAN_ANOMALY": 27.3088, "EPHEMERIS_TYPE": 0, "CLASSIFICATION_TYPE": "U", "NORAD_CAT_ID": 66633, "ELEMENT_SET_NO": 999, "REV_AT_EPOCH": 383, "BSTAR": -0.026578, "MEAN_MOTION_DOT": -0.02009027, "MEAN_MOTION_DDOT": 0}, "tle": {"line1": "1 66633U 25271S   25344.16668980 -.02009027  00000+0 -26578-1 0  9993", "line2": "2 66633  53.1597 199.5842 0001094  75.2359  27.3088 15.61171526  3836"}}, "geometry": {"type": "Point", "coordinates": [-97.46553416425242, 50.28126053781928]}}, {"type": "Feature", "properties": {"norad_id": 66634, "name": "STARLINK-35967", "group": "last-30-days", "lat": 50.908451730189064, "lon": -94.60961648522938, "alt_km": 380.7499458192706, "timestamp": "2025-12-10T11:33:52.173136+00:00", "meta": {"OBJECT_NAME": "STARLINK-35967", "OBJECT_ID": "2025-271T", "EPOCH": "2025-12-10T04:00:01.998720", "MEAN_MOTION": 15.61170373, "ECCENTRICITY": 0.000113, "INCLINATION": 53.1596, "RA_OF_ASC_NODE": 199.58, "ARG_OF_PERICENTER": 74.9775, "MEAN_ANOMALY": 29.4853, "EPHEMERIS_TYPE": 0, "CLASSIFICATION_TYPE": "U", "NORAD_CAT_ID": 66634, "ELEMENT_SET_NO": 999, "REV_AT_EPOCH": 376, "BSTAR": -0.026565, "MEAN_MOTION_DOT": -0.02008123, "MEAN_MOTION_DDOT": 0}, "tle": {"line1": "1 66634U 25271T   25344.16668980 -.02008123  00000+0 -26565-1 0  9996", "line2": "2 66634  53.1596 199.5800 0001130  74.9775  29.4853 15.61170373  3763"}}, "geometry": {"type": "Point", "coordinates": [-94.60961648522938, 50.908451730189064]}}, {"type": "Feature", "properties": {"norad_id": 66635, "name": "STARLINK-35955", "group": "last-30-days", "lat": 51.46399199608784, "lon": -91.68043490498479, "alt_km": 380.6926032367728, "timestamp": "2025-12-10T11:33:52.173147+00:00", "meta": {"OBJECT_NAME": "STARLINK-35955", "OBJECT_ID": "2025-271U", "EPOCH": "2025-12-10T04:00:01.998720", "MEAN_MOTION": 15.61173722, "ECCENTRICITY": 0.0001097, "INCLINATION": 53.1597, "RA_OF_ASC_NODE": 199.5763, "ARG_OF_PERICENTER": 77.4188, "MEAN_ANOMALY": 28.9587, "EPHEMERIS_TYPE": 0, "CLASSIFICATION_TYPE": "U", "NORAD_CAT_ID": 66635, "ELEMENT_SET_NO": 999, "REV_AT_EPOCH": 383, "BSTAR": -0.026604, "MEAN_MOTION_DOT": -0.02010933, "MEAN_MOTION_DDOT": 0}, "tle": {"line1": "1 66635U 25271U   25344.16668980 -.02010933  00000+0 -26604-1 0  9993", "line2": "2 66635  53.1597 199.5763 0001097  77.4188  28.9587 15.61173722  3838"}}, "geometry": {"type": "Point", "coordinates": [-91.68043490498479, 51.46399199608784]}}, {"type": "Feature", "properties": {"norad_id": 66636, "name": "STARLINK-35968", "group": "last-30-days", "lat": 51.94400086668012, "lon": -88.68746172580184, "alt_km": 380.63918540706163, "timestamp": "2025-12-10T11:33:52.173158+00:00", "meta": {"OBJECT_NAME": "STARLINK-35968", "OBJECT_ID": "2025-271V", "EPOCH": "2025-12-10T04:00:01.998720", "MEAN_MOTION": 15.61168044, "ECCENTRICITY": 0.0001081, "INCLINATION": 53.1596, "RA_OF_ASC_NODE": 199.5721, "ARG_OF_PERICENTER": 81.7028, "MEAN_ANOMALY": 26.5936, "EPHEMERIS_TYPE": 0, "CLASSIFICATION_TYPE": "U", "NORAD_CAT_ID": 66636, "ELEMENT_SET_NO": 999, "REV_AT_EPOCH": 383, "BSTAR": -0.026505, "MEAN_MOTION_DOT": -0.02003961, "MEAN_MOTION_DDOT": 0}, "tle": {"line1": "1 66636U 25271V   25344.16668980 -.02003961  00000+0 -26505-1 0  9997", "line2": "2 66636  53.1596 199.5721 0001081  81.7028  26.5936 15.61168044  3839"}}, "geometry": {"type": "Point", "coordinates": [-88.68746172580184, 51.94400086668012]}}, {"type": "Feature", "properties": {"norad_id": 66637, "name": "STARLINK-35953", "group": "last-30-days", "lat": 52.34798517258572, "lon": -85.62342465222638, "alt_km": 380.5924197850609, "timestamp": "2025-12-10T11:33:52.173167+00:00", "meta": {"OBJECT_NAME": "STARLINK-35953", "OBJECT_ID": "2025-271W", "EPOCH": "2025-12-10T04:00:01.998720", "MEAN_MOTION": 15.6117704, "ECCENTRICITY": 0.0001079, "INCLINATION": 53.1598, "RA_OF_ASC_NODE": 199.5681, "ARG_OF_PERICENTER": 70.2584, "MEAN_ANOMALY": 39.9532, "EPHEMERIS_TYPE": 0, "CLASSIFICATION_TYPE": "U", "NORAD_CAT_ID": 66637, "ELEMENT_SET_NO": 999, "REV_AT_EPOCH": 383, "BSTAR": -0.026684, "MEAN_MOTION_DOT": -0.02016436, "MEAN_MOTION_DDOT": 0}, "tle": {"line1": "1 66637U 25271W   25344.16668980 -.02016436  00000+0 -26684-1 0  9997", "line2": "2 66637  53.1598 199.5681 0001079  70.2584  39.9532 15.61177040  3830"}}, "geometry": {"type": "Point", "coordinates": [-85.62342465222638, 52.34798517258572]}}, {"type": "Feature", "properties": {"norad_id": 66638, "name": "STARLINK-35972", "group": "last-30-days", "lat": 52.66985017031495, "lon": -82.52029493548942, "alt_km": 380.56041434239796, "timestamp": "2025-12-10T11:33:52.173177+00:00", "meta": {"OBJECT_NAME": "STARLINK-35972", "OBJECT_ID": "2025-271X", "EPOCH": "2025-12-10T04:00:01.998720", "MEAN_MOTION": 15.61165451, "ECCENTRICITY": 0.0001064, "INCLINATION": 53.1598, "RA_OF_ASC_NODE": 199.5645, "ARG_OF_PERICENTER": 71.5514, "MEAN_ANOMALY": 40.5814, "EPHEMERIS_TYPE": 0, "CLASSIFICATION_TYPE": "U", "NORAD_CAT_ID": 66638, "ELEMENT_SET_NO": 999, "REV_AT_EPOCH": 383, "BSTAR": -0.026473, "MEAN_MOTION_DOT": -0.02001617, "MEAN_MOTION_DDOT": 0}, "tle": {"line1": "1 66638U 25271X   25344.16668980 -.02001617  00000+0 -26473-1 0  9999", "line2": "2 66638  53.1598 199.5645 0001064  71.5514  40.5814 15.61165451  3836"}}, "geometry": {"type": "Point", "coordinates": [-82.52029493548942, 52.66985017031495]}}]}